{
  "links" : {
    "next" : "https://api.nasa.gov/neo/rest/v1/feed?start_date=2002-09-16&end_date=2002-09-16&detailed=true&api_key=t0TVs3DtDT2H8Oy2Zy8m2eVrNsAVKAexjcZXUckd",
    "prev" : "https://api.nasa.gov/neo/rest/v1/feed?start_date=2002-09-14&end_date=2002-09-14&detailed=true&api_key=t0TVs3DtDT2H8Oy2Zy8m2eVrNsAVKAexjcZXUckd",
    "self" : "https://api.nasa.gov/neo/rest/v1/feed?start_date=2002-09-15&end_date=2002-09-15&detailed=true&api_key=t0TVs3DtDT2H8Oy2Zy8m2eVrNsAVKAexjcZXUckd"
  },
  "element_count" : 4,
  "near_earth_objects" : {
    "2002-09-15" : [ {
      "links" : {
        "self" : "https://api.nasa.gov/neo/rest/v1/neo/2088710?api_key=t0TVs3DtDT2H8Oy2Zy8m2eVrNsAVKAexjcZXUckd"
      },
      "neo_reference_id" : "2088710",
      "name" : "88710 (2001 SL9)",
      "nasa_jpl_url" : "http://ssd.jpl.nasa.gov/sbdb.cgi?sstr=2088710",
      "absolute_magnitude_h" : 17.6,
      "estimated_diameter" : {
        "kilometers" : {
          "estimated_diameter_min" : 0.8027031673,
          "estimated_diameter_max" : 1.7948988478
        },
        "meters" : {
          "estimated_diameter_min" : 802.7031672829,
          "estimated_diameter_max" : 1794.8988477988
        },
        "miles" : {
          "estimated_diameter_min" : 0.4987764698,
          "estimated_diameter_max" : 1.115298092
        },
        "feet" : {
          "estimated_diameter_min" : 2633.5406593483,
          "estimated_diameter_max" : 5888.7759358124
        }
      },
      "is_potentially_hazardous_asteroid" : false,
      "close_approach_data" : [ {
        "close_approach_date" : "2002-09-15",
        "epoch_date_close_approach" : 1032073200000,
        "relative_velocity" : {
          "kilometers_per_second" : "11.6771105064",
          "kilometers_per_hour" : "42037.5978230922",
          "miles_per_hour" : "26120.5284917986"
        },
        "miss_distance" : {
          "astronomical" : "0.4320637078",
          "lunar" : "168.0727844238",
          "kilometers" : "64635808",
          "miles" : "40162832"
        },
        "orbiting_body" : "Earth"
      } ],
      "orbital_data" : {
        "orbit_id" : "185",
        "orbit_determination_date" : "2017-04-06 09:28:23",
        "orbit_uncertainty" : "0",
        "minimum_orbit_intersection" : ".196339",
        "jupiter_tisserand_invariant" : "5.710",
        "epoch_osculation" : "2458000.5",
        "eccentricity" : ".2700407410535344",
        "semi_major_axis" : "1.061307961566643",
        "inclination" : "21.90092881542424",
        "ascending_node_longitude" : "202.8564887647098",
        "orbital_period" : "399.356318518184",
        "perihelion_distance" : ".7747115731391704",
        "perihelion_argument" : "329.3140322971465",
        "aphelion_distance" : "1.347904349994115",
        "perihelion_time" : "2457934.052434813796",
        "mean_anomaly" : "59.89919867999873",
        "mean_motion" : ".9014506176734198",
        "equinox" : "J2000"
      }
    }, {
      "links" : {
        "self" : "https://api.nasa.gov/neo/rest/v1/neo/3560057?api_key=t0TVs3DtDT2H8Oy2Zy8m2eVrNsAVKAexjcZXUckd"
      },
      "neo_reference_id" : "3560057",
      "name" : "(2011 FS2)",
      "nasa_jpl_url" : "http://ssd.jpl.nasa.gov/sbdb.cgi?sstr=3560057",
      "absolute_magnitude_h" : 26.2,
      "estimated_diameter" : {
        "kilometers" : {
          "estimated_diameter_min" : 0.0152951935,
          "estimated_diameter_max" : 0.0342010925
        },
        "meters" : {
          "estimated_diameter_min" : 15.2951935344,
          "estimated_diameter_max" : 34.201092472
        },
        "miles" : {
          "estimated_diameter_min" : 0.0095039897,
          "estimated_diameter_max" : 0.021251567
        },
        "feet" : {
          "estimated_diameter_min" : 50.1810827555,
          "estimated_diameter_max" : 112.2083122258
        }
      },
      "is_potentially_hazardous_asteroid" : false,
      "close_approach_data" : [ {
        "close_approach_date" : "2002-09-15",
        "epoch_date_close_approach" : 1032073200000,
        "relative_velocity" : {
          "kilometers_per_second" : "7.8761398673",
          "kilometers_per_hour" : "28354.1035221095",
          "miles_per_hour" : "17618.1372690574"
        },
        "miss_distance" : {
          "astronomical" : "0.0802878035",
          "lunar" : "31.2319564819",
          "kilometers" : "12010885",
          "miles" : "7463218"
        },
        "orbiting_body" : "Earth"
      } ],
      "orbital_data" : {
        "orbit_id" : "5",
        "orbit_determination_date" : "2017-04-06 08:54:03",
        "orbit_uncertainty" : "7",
        "minimum_orbit_intersection" : ".0374066",
        "jupiter_tisserand_invariant" : "5.699",
        "epoch_osculation" : "2458000.5",
        "eccentricity" : ".1154137370057034",
        "semi_major_axis" : "1.079254298538902",
        "inclination" : "13.93227736665582",
        "ascending_node_longitude" : "180.3045386220935",
        "orbital_period" : "409.5284781351569",
        "perihelion_distance" : ".9546935267650581",
        "perihelion_argument" : "76.45889828582334",
        "aphelion_distance" : "1.203815070312745",
        "perihelion_time" : "2458172.105614407239",
        "mean_anomaly" : "209.1484121741163",
        "mean_motion" : ".8790597460750678",
        "equinox" : "J2000"
      }
    }, {
      "links" : {
        "self" : "https://api.nasa.gov/neo/rest/v1/neo/3766334?api_key=t0TVs3DtDT2H8Oy2Zy8m2eVrNsAVKAexjcZXUckd"
      },
      "neo_reference_id" : "3766334",
      "name" : "(2017 AL4)",
      "nasa_jpl_url" : "http://ssd.jpl.nasa.gov/sbdb.cgi?sstr=3766334",
      "absolute_magnitude_h" : 23.0,
      "estimated_diameter" : {
        "kilometers" : {
          "estimated_diameter_min" : 0.0667659413,
          "estimated_diameter_max" : 0.1492931834
        },
        "meters" : {
          "estimated_diameter_min" : 66.7659413495,
          "estimated_diameter_max" : 149.2931834393
        },
        "miles" : {
          "estimated_diameter_min" : 0.0414864197,
          "estimated_diameter_max" : 0.0927664547
        },
        "feet" : {
          "estimated_diameter_min" : 219.0483710172,
          "estimated_diameter_max" : 489.807047955
        }
      },
      "is_potentially_hazardous_asteroid" : false,
      "close_approach_data" : [ {
        "close_approach_date" : "2002-09-15",
        "epoch_date_close_approach" : 1032073200000,
        "relative_velocity" : {
          "kilometers_per_second" : "10.1239326981",
          "kilometers_per_hour" : "36446.1577133148",
          "miles_per_hour" : "22646.2250524761"
        },
        "miss_distance" : {
          "astronomical" : "0.3022555775",
          "lunar" : "117.5774154663",
          "kilometers" : "45216792",
          "miles" : "28096410"
        },
        "orbiting_body" : "Earth"
      } ],
      "orbital_data" : {
        "orbit_id" : "5",
        "orbit_determination_date" : "2017-04-06 08:21:11",
        "orbit_uncertainty" : "6",
        "minimum_orbit_intersection" : ".0896811",
        "jupiter_tisserand_invariant" : "4.560",
        "epoch_osculation" : "2458000.5",
        "eccentricity" : ".311335293033921",
        "semi_major_axis" : "1.452642086480584",
        "inclination" : "13.21059097460447",
        "ascending_node_longitude" : "270.8048442942994",
        "orbital_period" : "639.4938330035889",
        "perihelion_distance" : "1.000383336812745",
        "perihelion_argument" : "127.8868226456739",
        "aphelion_distance" : "1.904900836148423",
        "perihelion_time" : "2457684.267927580688",
        "mean_anomaly" : "178.021335305533",
        "mean_motion" : ".5629452254592417",
        "equinox" : "J2000"
      }
    }, {
      "links" : {
        "self" : "https://api.nasa.gov/neo/rest/v1/neo/3603128?api_key=t0TVs3DtDT2H8Oy2Zy8m2eVrNsAVKAexjcZXUckd"
      },
      "neo_reference_id" : "3603128",
      "name" : "(2012 HL31)",
      "nasa_jpl_url" : "http://ssd.jpl.nasa.gov/sbdb.cgi?sstr=3603128",
      "absolute_magnitude_h" : 22.3,
      "estimated_diameter" : {
        "kilometers" : {
          "estimated_diameter_min" : 0.0921626549,
          "estimated_diameter_max" : 0.2060819612
        },
        "meters" : {
          "estimated_diameter_min" : 92.1626548503,
          "estimated_diameter_max" : 206.0819612321
        },
        "miles" : {
          "estimated_diameter_min" : 0.057267201,
          "estimated_diameter_max" : 0.1280533543
        },
        "feet" : {
          "estimated_diameter_min" : 302.370924539,
          "estimated_diameter_max" : 676.1219416887
        }
      },
      "is_potentially_hazardous_asteroid" : false,
      "close_approach_data" : [ {
        "close_approach_date" : "2002-09-15",
        "epoch_date_close_approach" : 1032073200000,
        "relative_velocity" : {
          "kilometers_per_second" : "15.8109039844",
          "kilometers_per_hour" : "56919.254343737",
          "miles_per_hour" : "35367.4111226404"
        },
        "miss_distance" : {
          "astronomical" : "0.4024369744",
          "lunar" : "156.5479888916",
          "kilometers" : "60203716",
          "miles" : "37408852"
        },
        "orbiting_body" : "Earth"
      } ],
      "orbital_data" : {
        "orbit_id" : "14",
        "orbit_determination_date" : "2017-05-03 06:19:10",
        "orbit_uncertainty" : "1",
        "minimum_orbit_intersection" : ".14639",
        "jupiter_tisserand_invariant" : "6.583",
        "epoch_osculation" : "2458000.5",
        "eccentricity" : ".3741253428397709",
        "semi_major_axis" : ".887616302242528",
        "inclination" : "19.80932507185338",
        "ascending_node_longitude" : "37.519513630256",
        "orbital_period" : "305.447329092136",
        "perihelion_distance" : ".5555365488558726",
        "perihelion_argument" : "17.49316240881426",
        "aphelion_distance" : "1.219696055629183",
        "perihelion_time" : "2458059.109995780296",
        "mean_anomaly" : "290.9223015843031",
        "mean_motion" : "1.178599272974518",
        "equinox" : "J2000"
      }
    } ]
  }
}